CCSDS_OMM_VERS = 2.0
CREATION_DATE  = 
ORIGINATOR     = 

OBJECT_NAME    = ZIYUAN 3-04 (ZY 3-04)
OBJECT_ID      = 2025-300A
CENTER_NAME    = EARTH
REF_FRAME      = TEME
TIME_SYSTEM    = UTC
MEAN_ELEMENT_THEORY = SGP/SGP4

EPOCH          = 2026-01-09T04:22:46.801632
MEAN_MOTION    = 15.21458354
ECCENTRICITY   = .00039457
INCLINATION    = 97.4889
RA_OF_ASC_NODE = 88.1516
ARG_OF_PERICENTER = 118.6144
MEAN_ANOMALY   = 241.5489

EPHEMERIS_TYPE = 0
CLASSIFICATION_TYPE = U
NORAD_CAT_ID   = 67131
ELEMENT_SET_NO = 999
REV_AT_EPOCH   = 366
BSTAR          = .80129707E-4
MEAN_MOTION_DOT = .173E-4
MEAN_MOTION_DDOT = 0

CCSDS_OMM_VERS = 2.0
CREATION_DATE  = 
ORIGINATOR     = 

OBJECT_NAME    = CZ-4B R/B
OBJECT_ID      = 2025-300B
CENTER_NAME    = EARTH
REF_FRAME      = TEME
TIME_SYSTEM    = UTC
MEAN_ELEMENT_THEORY = SGP/SGP4

EPOCH          = 2026-01-12T06:06:48.107808
MEAN_MOTION    = 15.70941637
ECCENTRICITY   = .01527613
INCLINATION    = 97.5506
RA_OF_ASC_NODE = 93.4107
ARG_OF_PERICENTER = 276.5441
MEAN_ANOMALY   = 81.8451

EPHEMERIS_TYPE = 0
CLASSIFICATION_TYPE = U
NORAD_CAT_ID   = 67132
ELEMENT_SET_NO = 999
REV_AT_EPOCH   = 425
BSTAR          = .53800676E-3
MEAN_MOTION_DOT = .135677E-2
MEAN_MOTION_DDOT = .7711014E-5

CCSDS_OMM_VERS = 2.0
CREATION_DATE  = 
ORIGINATOR     = 

OBJECT_NAME    = KUIPER-00144
OBJECT_ID      = 2025-301A
CENTER_NAME    = EARTH
REF_FRAME      = TEME
TIME_SYSTEM    = UTC
MEAN_ELEMENT_THEORY = SGP/SGP4

EPOCH          = 2026-01-12T03:53:42.356256
MEAN_MOTION    = 15.34713384
ECCENTRICITY   = .0017669
INCLINATION    = 51.8725
RA_OF_ASC_NODE = 338.3948
ARG_OF_PERICENTER = 133.1102
MEAN_ANOMALY   = 227.1365

EPHEMERIS_TYPE = 0
CLASSIFICATION_TYPE = U
NORAD_CAT_ID   = 67133
ELEMENT_SET_NO = 999
REV_AT_EPOCH   = 504
BSTAR          = -.48998081E-1
MEAN_MOTION_DOT = -.1520725E-1
MEAN_MOTION_DDOT = 0

CCSDS_OMM_VERS = 2.0
CREATION_DATE  = 
ORIGINATOR     = 

OBJECT_NAME    = KUIPER-00164
OBJECT_ID      = 2025-301B
CENTER_NAME    = EARTH
REF_FRAME      = TEME
TIME_SYSTEM    = UTC
MEAN_ELEMENT_THEORY = SGP/SGP4

EPOCH          = 2026-01-12T02:03:25.908192
MEAN_MOTION    = 15.36730723
ECCENTRICITY   = .00032853
INCLINATION    = 51.8741
RA_OF_ASC_NODE = 338.6334
ARG_OF_PERICENTER = 154.6027
MEAN_ANOMALY   = 205.5122

EPHEMERIS_TYPE = 0
CLASSIFICATION_TYPE = U
NORAD_CAT_ID   = 67134
ELEMENT_SET_NO = 999
REV_AT_EPOCH   = 521
BSTAR          = .10493105E-2
MEAN_MOTION_DOT = .38046E-3
MEAN_MOTION_DDOT = 0

CCSDS_OMM_VERS = 2.0
CREATION_DATE  = 
ORIGINATOR     = 

OBJECT_NAME    = KUIPER-00175
OBJECT_ID      = 2025-301C
CENTER_NAME    = EARTH
REF_FRAME      = TEME
TIME_SYSTEM    = UTC
MEAN_ELEMENT_THEORY = SGP/SGP4

EPOCH          = 2026-01-12T06:31:29.720064
MEAN_MOTION    = 15.37271484
ECCENTRICITY   = .00028859
INCLINATION    = 51.8747
RA_OF_ASC_NODE = 337.6328
ARG_OF_PERICENTER = 104.1919
MEAN_ANOMALY   = 255.9388

EPHEMERIS_TYPE = 0
CLASSIFICATION_TYPE = U
NORAD_CAT_ID   = 67135
ELEMENT_SET_NO = 999
REV_AT_EPOCH   = 513
BSTAR          = .10314486E-2
MEAN_MOTION_DOT = .38054E-3
MEAN_MOTION_DDOT = 0

CCSDS_OMM_VERS = 2.0
CREATION_DATE  = 
ORIGINATOR     = 

OBJECT_NAME    = KUIPER-00179
OBJECT_ID      = 2025-301D
CENTER_NAME    = EARTH
REF_FRAME      = TEME
TIME_SYSTEM    = UTC
MEAN_ELEMENT_THEORY = SGP/SGP4

EPOCH          = 2026-01-12T06:40:52.187520
MEAN_MOTION    = 15.36834768
ECCENTRICITY   = .00032638
INCLINATION    = 51.8747
RA_OF_ASC_NODE = 337.6749
ARG_OF_PERICENTER = 128.7197
MEAN_ANOMALY   = 231.4081

EPHEMERIS_TYPE = 0
CLASSIFICATION_TYPE = U
NORAD_CAT_ID   = 67136
ELEMENT_SET_NO = 999
REV_AT_EPOCH   = 524
BSTAR          = .78018519E-3
MEAN_MOTION_DOT = .28247E-3
MEAN_MOTION_DDOT = 0

CCSDS_OMM_VERS = 2.0
CREATION_DATE  = 
ORIGINATOR     = 

OBJECT_NAME    = KUIPER-00181
OBJECT_ID      = 2025-301E
CENTER_NAME    = EARTH
REF_FRAME      = TEME
TIME_SYSTEM    = UTC
MEAN_ELEMENT_THEORY = SGP/SGP4

EPOCH          = 2026-01-12T07:28:38.405568
MEAN_MOTION    = 15.34843843
ECCENTRICITY   = .00111947
INCLINATION    = 51.8651
RA_OF_ASC_NODE = 337.8788
ARG_OF_PERICENTER = 200.4157
MEAN_ANOMALY   = 159.6382

EPHEMERIS_TYPE = 0
CLASSIFICATION_TYPE = U
NORAD_CAT_ID   = 67137
ELEMENT_SET_NO = 999
REV_AT_EPOCH   = 522
BSTAR          = .92745179E-3
MEAN_MOTION_DOT = .31622E-3
MEAN_MOTION_DDOT = 0

CCSDS_OMM_VERS = 2.0
CREATION_DATE  = 
ORIGINATOR     = 

OBJECT_NAME    = KUIPER-00183
OBJECT_ID      = 2025-301F
CENTER_NAME    = EARTH
REF_FRAME      = TEME
TIME_SYSTEM    = UTC
MEAN_ELEMENT_THEORY = SGP/SGP4

EPOCH          = 2026-01-11T22:12:31.037472
MEAN_MOTION    = 15.34835399
ECCENTRICITY   = .00114133
INCLINATION    = 51.8621
RA_OF_ASC_NODE = 339.7844
ARG_OF_PERICENTER = 198.2536
MEAN_ANOMALY   = 161.8041

EPHEMERIS_TYPE = 0
CLASSIFICATION_TYPE = U
NORAD_CAT_ID   = 67138
ELEMENT_SET_NO = 999
REV_AT_EPOCH   = 517
BSTAR          = .90799696E-3
MEAN_MOTION_DOT = .30942E-3
MEAN_MOTION_DDOT = 0

CCSDS_OMM_VERS = 2.0
CREATION_DATE  = 
ORIGINATOR     = 

OBJECT_NAME    = KUIPER-00184
OBJECT_ID      = 2025-301G
CENTER_NAME    = EARTH
REF_FRAME      = TEME
TIME_SYSTEM    = UTC
MEAN_ELEMENT_THEORY = SGP/SGP4

EPOCH          = 2026-01-11T23:37:40.532160
MEAN_MOTION    = 15.35084623
ECCENTRICITY   = .00091087
INCLINATION    = 51.8642
RA_OF_ASC_NODE = 339.4343
ARG_OF_PERICENTER = 196.8483
MEAN_ANOMALY   = 163.2201

EPHEMERIS_TYPE = 0
CLASSIFICATION_TYPE = U
NORAD_CAT_ID   = 67139
ELEMENT_SET_NO = 999
REV_AT_EPOCH   = 529
BSTAR          = .96090561E-3
MEAN_MOTION_DOT = .33016E-3
MEAN_MOTION_DDOT = 0

CCSDS_OMM_VERS = 2.0
CREATION_DATE  = 
ORIGINATOR     = 

OBJECT_NAME    = KUIPER-00186
OBJECT_ID      = 2025-301H
CENTER_NAME    = EARTH
REF_FRAME      = TEME
TIME_SYSTEM    = UTC
MEAN_ELEMENT_THEORY = SGP/SGP4

EPOCH          = 2026-01-12T02:28:55.197696
MEAN_MOTION    = 15.35905512
ECCENTRICITY   = .0008208
INCLINATION    = 51.8711
RA_OF_ASC_NODE = 338.7439
ARG_OF_PERICENTER = 182.3768
MEAN_ANOMALY   = 177.7181

EPHEMERIS_TYPE = 0
CLASSIFICATION_TYPE = U
NORAD_CAT_ID   = 67140
ELEMENT_SET_NO = 999
REV_AT_EPOCH   = 503
BSTAR          = .94628692E-3
MEAN_MOTION_DOT = .33374E-3
MEAN_MOTION_DDOT = 0

CCSDS_OMM_VERS = 2.0
CREATION_DATE  = 
ORIGINATOR     = 

OBJECT_NAME    = KUIPER-00187
OBJECT_ID      = 2025-301J
CENTER_NAME    = EARTH
REF_FRAME      = TEME
TIME_SYSTEM    = UTC
MEAN_ELEMENT_THEORY = SGP/SGP4

EPOCH          = 2026-01-12T06:58:11.161344
MEAN_MOTION    = 15.33016716
ECCENTRICITY   = .00057415
INCLINATION    = 51.8739
RA_OF_ASC_NODE = 337.7398
ARG_OF_PERICENTER = 171.7637
MEAN_ANOMALY   = 188.3443

EPHEMERIS_TYPE = 0
CLASSIFICATION_TYPE = U
NORAD_CAT_ID   = 67141
ELEMENT_SET_NO = 999
REV_AT_EPOCH   = 506
BSTAR          = -.18462015E-2
MEAN_MOTION_DOT = -.59699E-3
MEAN_MOTION_DDOT = 0

CCSDS_OMM_VERS = 2.0
CREATION_DATE  = 
ORIGINATOR     = 

OBJECT_NAME    = KUIPER-00188
OBJECT_ID      = 2025-301K
CENTER_NAME    = EARTH
REF_FRAME      = TEME
TIME_SYSTEM    = UTC
MEAN_ELEMENT_THEORY = SGP/SGP4

EPOCH          = 2026-01-12T02:31:39.756000
MEAN_MOTION    = 15.35718184
ECCENTRICITY   = .00074232
INCLINATION    = 51.8712
RA_OF_ASC_NODE = 338.7574
ARG_OF_PERICENTER = 191.2281
MEAN_ANOMALY   = 168.8540

EPHEMERIS_TYPE = 0
CLASSIFICATION_TYPE = U
NORAD_CAT_ID   = 67142
ELEMENT_SET_NO = 999
REV_AT_EPOCH   = 503
BSTAR          = .98546321E-3
MEAN_MOTION_DOT = .34561E-3
MEAN_MOTION_DDOT = 0

